[{"OBJECT_NAME":"GEESAT-5 04","OBJECT_ID":"2025-201D","EPOCH":"2026-03-09T16:43:55.713504","MEAN_MOTION":14.83246281,"ECCENTRICITY":0.00110249,"INCLINATION":49.9844,"RA_OF_ASC_NODE":141.1656,"ARG_OF_PERICENTER":244.2414,"MEAN_ANOMALY":115.7387,"EPHEMERIS_TYPE":0,"CLASSIFICATION_TYPE":"U","NORAD_CAT_ID":65553,"ELEMENT_SET_NO":999,"REV_AT_EPOCH":2701,"BSTAR":0.00027420324,"MEAN_MOTION_DOT":2.041e-5,"MEAN_MOTION_DDOT":0},{"OBJECT_NAME":"DELTA 1 DEB","OBJECT_ID":"1977-065CD","EPOCH":"2026-03-09T01:01:50.309760","MEAN_MOTION":13.27578824,"ECCENTRICITY":0.07558328,"INCLINATION":28.8457,"RA_OF_ASC_NODE":297.3745,"ARG_OF_PERICENTER":341.565,"MEAN_ANOMALY":15.8855,"EPHEMERIS_TYPE":0,"CLASSIFICATION_TYPE":"U","NORAD_CAT_ID":10252,"ELEMENT_SET_NO":999,"REV_AT_EPOCH":32652,"BSTAR":0.00049933869,"MEAN_MOTION_DOT":1.221e-5,"MEAN_MOTION_DDOT":0}]
